[{"OBJECT_NAME":"STARLINK-32375","OBJECT_ID":"2024-164W","EPOCH":"2026-01-18T20:13:58.600704","MEAN_MOTION":15.30197896,"ECCENTRICITY":0.00011214,"INCLINATION":53.1632,"RA_OF_ASC_NODE":322.805,"ARG_OF_PERICENTER":75.3185,"MEAN_ANOMALY":284.794,"EPHEMERIS_TYPE":0,"CLASSIFICATION_TYPE":"U","NORAD_CAT_ID":61070,"ELEMENT_SET_NO":999,"REV_AT_EPOCH":7584,"BSTAR":6.9928125e-5,"MEAN_MOTION_DOT":1.712e-5,"MEAN_MOTION_DDOT":0},{"OBJECT_NAME":"STARLINK-11209 [DTC]","OBJECT_ID":"2024-171A","EPOCH":"2026-01-18T08:59:57.995520","MEAN_MOTION":15.69699704,"ECCENTRICITY":0.00013098,"INCLINATION":53.1591,"RA_OF_ASC_NODE":64.4939,"ARG_OF_PERICENTER":96.8271,"MEAN_ANOMALY":263.2896,"EPHEMERIS_TYPE":0,"CLASSIFICATION_TYPE":"U","NORAD_CAT_ID":61200,"ELEMENT_SET_NO":999,"REV_AT_EPOCH":7740,"BSTAR":-7.932222e-6,"MEAN_MOTION_DOT":-1.549e-5,"MEAN_MOTION_DDOT":0},{"OBJECT_NAME":"STARLINK-11257 [DTC]","OBJECT_ID":"2024-171B","EPOCH":"2026-01-18T11:56:15.158688","MEAN_MOTION":15.69711781,"ECCENTRICITY":0.00016279,"INCLINATION":53.1593,"RA_OF_ASC_NODE":63.8234,"ARG_OF_PERICENTER":121.369,"MEAN_ANOMALY":238.7487,"EPHEMERIS_TYPE":0,"CLASSIFICATION_TYPE":"U","NORAD_CAT_ID":61201,"ELEMENT_SET_NO":999,"REV_AT_EPOCH":7651,"BSTAR":1.0826575e-5,"MEAN_MOTION_DOT":7.22e-6,"MEAN_MOTION_DDOT":0},{"OBJECT_NAME":"STARLINK-11309 [DTC]","OBJECT_ID":"2024-171C","EPOCH":"2026-01-18T10:17:31.089984","MEAN_MOTION":15.69701234,"ECCENTRICITY":0.0001144,"INCLINATION":53.1589,"RA_OF_ASC_NODE":64.1097,"ARG_OF_PERICENTER":83.8701,"MEAN_ANOMALY":276.2447,"EPHEMERIS_TYPE":0,"CLASSIFICATION_TYPE":"U","NORAD_CAT_ID":61202,"ELEMENT_SET_NO":999,"REV_AT_EPOCH":7650,"BSTAR":-6.518424e-6,"MEAN_MOTION_DOT":-1.378e-5,"MEAN_MOTION_DDOT":0},{"OBJECT_NAME":"STARLINK-11292 [DTC]","OBJECT_ID":"2024-171D","EPOCH":"2026-01-18T13:13:48.039744","MEAN_MOTION":15.69718802,"ECCENTRICITY":0.00010532,"INCLINATION":53.159,"RA_OF_ASC_NODE":63.4475,"ARG_OF_PERICENTER":95.4931,"MEAN_ANOMALY":264.6207,"EPHEMERIS_TYPE":0,"CLASSIFICATION_TYPE":"U","NORAD_CAT_ID":61203,"ELEMENT_SET_NO":999,"REV_AT_EPOCH":7652,"BSTAR":1.5097331e-5,"MEAN_MOTION_DOT":1.241e-5,"MEAN_MOTION_DDOT":0},{"OBJECT_NAME":"STARLINK-11302 [DTC]","OBJECT_ID":"2024-171E","EPOCH":"2026-01-18T08:31:42.313440","MEAN_MOTION":15.69696149,"ECCENTRICITY":0.00012077,"INCLINATION":53.158,"RA_OF_ASC_NODE":64.3575,"ARG_OF_PERICENTER":105.3098,"MEAN_ANOMALY":254.8053,"EPHEMERIS_TYPE":0,"CLASSIFICATION_TYPE":"U","NORAD_CAT_ID":61204,"ELEMENT_SET_NO":999,"REV_AT_EPOCH":7649,"BSTAR":-3.40676e-7,"MEAN_MOTION_DOT":-6.3e-6,"MEAN_MOTION_DDOT":0},{"OBJECT_NAME":"STARLINK-11277 [DTC]","OBJECT_ID":"2024-171F","EPOCH":"2026-01-18T12:52:36.916032","MEAN_MOTION":15.69714436,"ECCENTRICITY":0.00013299,"INCLINATION":53.1585,"RA_OF_ASC_NODE":63.3503,"ARG_OF_PERICENTER":95.785,"MEAN_ANOMALY":264.3319,"EPHEMERIS_TYPE":0,"CLASSIFICATION_TYPE":"U","NORAD_CAT_ID":61205,"ELEMENT_SET_NO":999,"REV_AT_EPOCH":7652,"BSTAR":1.4083006e-5,"MEAN_MOTION_DOT":1.118e-5,"MEAN_MOTION_DDOT":0},{"OBJECT_NAME":"STARLINK-11279 [DTC]","OBJECT_ID":"2024-171G","EPOCH":"2026-01-18T09:42:11.312640","MEAN_MOTION":15.69714316,"ECCENTRICITY":0.00012814,"INCLINATION":53.16,"RA_OF_ASC_NODE":63.945,"ARG_OF_PERICENTER":88.6708,"MEAN_ANOMALY":271.4457,"EPHEMERIS_TYPE":0,"CLASSIFICATION_TYPE":"U","NORAD_CAT_ID":61206,"ELEMENT_SET_NO":999,"REV_AT_EPOCH":7650,"BSTAR":-5.186946e-6,"MEAN_MOTION_DOT":-1.217e-5,"MEAN_MOTION_DDOT":0},{"OBJECT_NAME":"STARLINK-11091 [DTC]","OBJECT_ID":"2024-171H","EPOCH":"2026-01-18T09:56:18.701376","MEAN_MOTION":15.69713317,"ECCENTRICITY":0.00012047,"INCLINATION":53.1587,"RA_OF_ASC_NODE":64.0092,"ARG_OF_PERICENTER":100.7567,"MEAN_ANOMALY":259.3587,"EPHEMERIS_TYPE":0,"CLASSIFICATION_TYPE":"U","NORAD_CAT_ID":61207,"ELEMENT_SET_NO":999,"REV_AT_EPOCH":7650,"BSTAR":5.078329e-6,"MEAN_MOTION_DOT":2.7e-7,"MEAN_MOTION_DDOT":0},{"OBJECT_NAME":"STARLINK-11291 [DTC]","OBJECT_ID":"2024-171J","EPOCH":"2026-01-18T20:16:54.193152","MEAN_MOTION":15.69712615,"ECCENTRICITY":0.00010491,"INCLINATION":53.1583,"RA_OF_ASC_NODE":61.7144,"ARG_OF_PERICENTER":92.9567,"MEAN_ANOMALY":267.1571,"EPHEMERIS_TYPE":0,"CLASSIFICATION_TYPE":"U","NORAD_CAT_ID":61208,"ELEMENT_SET_NO":999,"REV_AT_EPOCH":7657,"BSTAR":1.1968324e-5,"MEAN_MOTION_DOT":8.62e-6,"MEAN_MOTION_DDOT":0},{"OBJECT_NAME":"STARLINK-11304 [DTC]","OBJECT_ID":"2024-171K","EPOCH":"2026-01-18T20:09:50.376096","MEAN_MOTION":15.69716875,"ECCENTRICITY":0.0001036,"INCLINATION":53.1588,"RA_OF_ASC_NODE":61.682,"ARG_OF_PERICENTER":78.3522,"MEAN_ANOMALY":281.7612,"EPHEMERIS_TYPE":0,"CLASSIFICATION_TYPE":"U","NORAD_CAT_ID":61209,"ELEMENT_SET_NO":999,"REV_AT_EPOCH":7748,"BSTAR":2.2387189e-5,"MEAN_MOTION_DOT":2.125e-5,"MEAN_MOTION_DDOT":0},{"OBJECT_NAME":"STARLINK-11307 [DTC]","OBJECT_ID":"2024-171L","EPOCH":"2026-01-18T20:02:56.153760","MEAN_MOTION":15.69700883,"ECCENTRICITY":0.00010542,"INCLINATION":53.1582,"RA_OF_ASC_NODE":62.3827,"ARG_OF_PERICENTER":97.6386,"MEAN_ANOMALY":262.4752,"EPHEMERIS_TYPE":0,"CLASSIFICATION_TYPE":"U","NORAD_CAT_ID":61210,"ELEMENT_SET_NO":999,"REV_AT_EPOCH":7656,"BSTAR":-2.030038e-6,"MEAN_MOTION_DOT":-8.34e-6,"MEAN_MOTION_DDOT":0},{"OBJECT_NAME":"STARLINK-11298 [DTC]","OBJECT_ID":"2024-171M","EPOCH":"2026-01-18T10:45:45.502848","MEAN_MOTION":15.69713142,"ECCENTRICITY":8.522e-5,"INCLINATION":53.158,"RA_OF_ASC_NODE":64.2324,"ARG_OF_PERICENTER":85.0225,"MEAN_ANOMALY":275.089,"EPHEMERIS_TYPE":0,"CLASSIFICATION_TYPE":"U","NORAD_CAT_ID":61211,"ELEMENT_SET_NO":999,"REV_AT_EPOCH":7650,"BSTAR":6.426589e-6,"MEAN_MOTION_DOT":1.9e-6,"MEAN_MOTION_DDOT":0},{"OBJECT_NAME":"STARLINK-11310 [DTC]","OBJECT_ID":"2024-171N","EPOCH":"2026-01-18T12:10:22.499040","MEAN_MOTION":15.69715924,"ECCENTRICITY":0.00013104,"INCLINATION":53.1597,"RA_OF_ASC_NODE":63.8843,"ARG_OF_PERICENTER":111.0897,"MEAN_ANOMALY":249.0261,"EPHEMERIS_TYPE":0,"CLASSIFICATION_TYPE":"U","NORAD_CAT_ID":61212,"ELEMENT_SET_NO":999,"REV_AT_EPOCH":7651,"BSTAR":8.954665e-6,"MEAN_MOTION_DOT":4.96e-6,"MEAN_MOTION_DDOT":0},{"OBJECT_NAME":"STARLINK-32386","OBJECT_ID":"2024-171P","EPOCH":"2026-01-18T20:33:01.818720","MEAN_MOTION":15.3018693,"ECCENTRICITY":0.00012861,"INCLINATION":53.1597,"RA_OF_ASC_NODE":193.5676,"ARG_OF_PERICENTER":96.705,"MEAN_ANOMALY":263.4097,"EPHEMERIS_TYPE":0,"CLASSIFICATION_TYPE":"U","NORAD_CAT_ID":61213,"ELEMENT_SET_NO":999,"REV_AT_EPOCH":7474,"BSTAR":-1.2376556e-5,"MEAN_MOTION_DOT":-7.26e-6,"MEAN_MOTION_DDOT":0},{"OBJECT_NAME":"STARLINK-32392","OBJECT_ID":"2024-171Q","EPOCH":"2026-01-18T20:58:51.431232","MEAN_MOTION":15.3019133,"ECCENTRICITY":0.00011164,"INCLINATION":53.1595,"RA_OF_ASC_NODE":193.6782,"ARG_OF_PERICENTER":84.0588,"MEAN_ANOMALY":276.054,"EPHEMERIS_TYPE":0,"CLASSIFICATION_TYPE":"U","NORAD_CAT_ID":61214,"ELEMENT_SET_NO":999,"REV_AT_EPOCH":7474,"BSTAR":1.0043985e-5,"MEAN_MOTION_DOT":-6.2e-7,"MEAN_MOTION_DDOT":0},{"OBJECT_NAME":"STARLINK-32436","OBJECT_ID":"2024-171R","EPOCH":"2026-01-18T20:34:32.600928","MEAN_MOTION":15.30191713,"ECCENTRICITY":0.00011801,"INCLINATION":53.1601,"RA_OF_ASC_NODE":193.575,"ARG_OF_PERICENTER":91.6023,"MEAN_ANOMALY":268.5113,"EPHEMERIS_TYPE":0,"CLASSIFICATION_TYPE":"U","NORAD_CAT_ID":61215,"ELEMENT_SET_NO":999,"REV_AT_EPOCH":7474,"BSTAR":1.9022046e-5,"MEAN_MOTION_DOT":2.04e-6,"MEAN_MOTION_DDOT":0},{"OBJECT_NAME":"STARLINK-32425","OBJECT_ID":"2024-171S","EPOCH":"2026-01-18T18:24:11.122560","MEAN_MOTION":15.30194376,"ECCENTRICITY":0.00013351,"INCLINATION":53.162,"RA_OF_ASC_NODE":194.4298,"ARG_OF_PERICENTER":76.643,"MEAN_ANOMALY":283.472,"EPHEMERIS_TYPE":0,"CLASSIFICATION_TYPE":"U","NORAD_CAT_ID":61216,"ELEMENT_SET_NO":999,"REV_AT_EPOCH":7472,"BSTAR":1.6004291e-5,"MEAN_MOTION_DOT":1.15e-6,"MEAN_MOTION_DDOT":0},{"OBJECT_NAME":"STARLINK-32342","OBJECT_ID":"2024-171T","EPOCH":"2026-01-18T18:08:59.323488","MEAN_MOTION":15.30192666,"ECCENTRICITY":0.0001171,"INCLINATION":53.1602,"RA_OF_ASC_NODE":194.3628,"ARG_OF_PERICENTER":83.4601,"MEAN_ANOMALY":276.6533,"EPHEMERIS_TYPE":0,"CLASSIFICATION_TYPE":"U","NORAD_CAT_ID":61217,"ELEMENT_SET_NO":999,"REV_AT_EPOCH":7563,"BSTAR":-1.44651e-6,"MEAN_MOTION_DOT":-4.02e-6,"MEAN_MOTION_DDOT":0},{"OBJECT_NAME":"STARLINK-32423","OBJECT_ID":"2024-171U","EPOCH":"2026-01-18T18:12:01.395936","MEAN_MOTION":15.30193998,"ECCENTRICITY":0.00013449,"INCLINATION":53.161,"RA_OF_ASC_NODE":194.3786,"ARG_OF_PERICENTER":78.6443,"MEAN_ANOMALY":281.4709,"EPHEMERIS_TYPE":0,"CLASSIFICATION_TYPE":"U","NORAD_CAT_ID":61218,"ELEMENT_SET_NO":999,"REV_AT_EPOCH":7563,"BSTAR":3.2137366e-5,"MEAN_MOTION_DOT":5.93e-6,"MEAN_MOTION_DDOT":0},{"OBJECT_NAME":"STARLINK-32248","OBJECT_ID":"2024-171V","EPOCH":"2026-01-18T21:45:58.000320","MEAN_MOTION":15.30194068,"ECCENTRICITY":0.00011145,"INCLINATION":53.1601,"RA_OF_ASC_NODE":193.8779,"ARG_OF_PERICENTER":91.4473,"MEAN_ANOMALY":268.6655,"EPHEMERIS_TYPE":0,"CLASSIFICATION_TYPE":"U","NORAD_CAT_ID":61219,"ELEMENT_SET_NO":999,"REV_AT_EPOCH":7565,"BSTAR":3.029e-8,"MEAN_MOTION_DOT":-3.58e-6,"MEAN_MOTION_DDOT":0},{"OBJECT_NAME":"STARLINK-11300 [DTC]","OBJECT_ID":"2024-175A","EPOCH":"2026-01-18T22:45:06.573600","MEAN_MOTION":15.69686781,"ECCENTRICITY":1.44e-5,"INCLINATION":53.1595,"RA_OF_ASC_NODE":301.5014,"ARG_OF_PERICENTER":9.808,"MEAN_ANOMALY":350.2941,"EPHEMERIS_TYPE":0,"CLASSIFICATION_TYPE":"U","NORAD_CAT_ID":61243,"ELEMENT_SET_NO":999,"REV_AT_EPOCH":7555,"BSTAR":-1.5123487e-5,"MEAN_MOTION_DOT":-2.417e-5,"MEAN_MOTION_DDOT":0},{"OBJECT_NAME":"STARLINK-11276 [DTC]","OBJECT_ID":"2024-175B","EPOCH":"2026-01-18T22:38:00.297600","MEAN_MOTION":15.69714814,"ECCENTRICITY":9.508e-5,"INCLINATION":53.1588,"RA_OF_ASC_NODE":301.4683,"ARG_OF_PERICENTER":82.9944,"MEAN_ANOMALY":277.1182,"EPHEMERIS_TYPE":0,"CLASSIFICATION_TYPE":"U","NORAD_CAT_ID":61244,"ELEMENT_SET_NO":999,"REV_AT_EPOCH":7555,"BSTAR":1.643697e-6,"MEAN_MOTION_DOT":-3.89e-6,"MEAN_MOTION_DDOT":0}]
